ONEWEB-0275             
1 48993U 21060AC  26155.68993271 -.00000060  00000+0 -19105-3 0  9992
2 48993  87.9105 231.2565 0001939  96.2076 263.9276 13.16594314237915
ONEWEB-0278             
1 48996U 21060AF  26156.94228746  .00000002  00000+0 -27719-4 0  9999
2 48996  87.9103 231.0067 0002209 103.7032 256.4345 13.16596264238212
ONEWEB-0279             
1 48997U 21060AG  26156.95021573  .00000019  00000+0  17092-4 0  9990
2 48997  87.9098 231.0035 0001806  94.9918 265.1419 13.16593941238147
ONEWEB-0280             
1 48998U 21060AH  26156.43326235  .00000114  00000+0  26585-3 0  9999
2 48998  87.9099 231.1096 0001930 110.3666 249.7672 13.16593179238016
ONEWEB-0281             
1 48999U 21060AJ  26156.43882203  .00000068  00000+0  14410-3 0  9994
2 48999  87.9102 231.1038 0002111 101.5717 258.5651 13.16594545238089
ONEWEB-0282             
1 49000U 21060AK  26156.46888899 -.00000061  00000+0 -19259-3 0  9999
2 49000  87.9102 231.1066 0001886 101.7920 258.3422 13.16596158238064
ONEWEB-0283             
1 49001U 21060AL  26156.45781144 -.00000015  00000+0 -72488-4 0  9997
2 49001  87.9102 231.1086 0001886  96.2847 263.8499 13.16593890238079
ONEWEB-0284             
1 49002U 21060AM  26156.45148493  .00000030  00000+0  45219-4 0  9999
2 49002  87.9104 231.1025 0002105 108.7703 251.3656 13.16594305238057
ONEWEB-0285             
1 49075U 21075A   26156.47222065  .00000116  00000+0  28633-3 0  9990
2 49075  87.8949 352.9920 0001707  89.1992 270.9332 13.12441889233673
ONEWEB-0286             
1 49076U 21075B   26156.45429443  .00000464  00000+0  12549-2 0  9992
2 49076  87.8939 353.0134 0002020  89.5655 270.5705 13.12442753233021
ONEWEB-0287             
1 49077U 21075C   26156.32060744  .00000017  00000+0  10900-4 0  9999
2 49077  87.9142   8.2268 0002271  90.0845 270.0547 13.17647669232062
ONEWEB-0288             
1 49078U 21075D   26156.50694471 -.00000328  00000+0 -94661-3 0  9992
2 49078  87.8948 352.9786 0001918  94.1941 265.9407 13.12443296233658
ONEWEB-0289             
1 49079U 21075E   26156.51115623  .00000054  00000+0  10595-3 0  9999
2 49079  87.9148   8.2047 0001648  96.5699 263.5621 13.17649359232664
ONEWEB-0290             
1 49080U 21075F   26156.33242103  .00000044  00000+0  81422-4 0  9992
2 49080  87.9146   8.2120 0001511 101.8247 258.3054 13.17649597232053
ONEWEB-0291             
1 49081U 21075G   26156.31723351  .00000020  00000+0  17674-4 0  9992
2 49081  87.9144   8.2234 0002043  97.4684 262.6680 13.17647705232045
ONEWEB-0293             
1 49082U 21075H   26156.49440679 -.00000134  00000+0 -37750-3 0  9995
2 49082  87.9142   8.1915 0001757  92.7450 267.3883 13.17649588232092
ONEWEB-0294             
1 49083U 21075J   26156.51372835 -.00000129  00000+0 -39468-3 0  9999
2 49083  87.8949 352.9808 0001593  98.2176 261.9133 13.12444266233047
ONEWEB-0295             
1 49084U 21075K   26156.49356740 -.00000192  00000+0 -52810-3 0  9990
2 49084  87.9136   8.1961 0002015  92.2960 267.8403 13.17647147232055
ONEWEB-0296             
1 49085U 21075L   26156.49338755 -.00000247  00000+0 -72075-3 0  9993
2 49085  87.8951 352.9920 0002046  90.6331 269.5032 13.12443095233041
ONEWEB-0297             
1 49086U 21075M   26156.44765647  .00000307  00000+0  81913-3 0  9999
2 49086  87.8938 353.0133 0001886  90.7557 269.3788 13.12443645233640
ONEWEB-0298             
1 49087U 21075N   26156.49794980  .00000085  00000+0  18507-3 0  9999
2 49087  87.9143   8.1926 0001926  85.4754 274.6598 13.17649911232087
ONEWEB-0299             
1 49088U 21075P   26156.04386977  .00000042  00000+0  74796-4 0  9990
2 49088  87.9152   8.2625 0001972  87.7813 272.3545 13.17650468232005
ONEWEB-0300             
1 49089U 21075Q   26156.51626716 -.00000042  00000+0 -15252-3 0  9994
2 49089  87.8951 352.9775 0001954  79.9222 280.2126 13.12444685233678
ONEWEB-0301             
1 49090U 21075R   26156.50016816 -.00000450  00000+0 -12872-2 0  9996
2 49090  87.8948 352.9793 0001813  78.0741 282.0591 13.12444219233035
ONEWEB-0302             
1 49091U 21075S   26156.48661589 -.00000358  00000+0 -10297-2 0  9993
2 49091  87.8950 352.9933 0001705  97.9291 262.2031 13.12441872233014
ONEWEB-0304             
1 49092U 21075T   26156.32229432  .00000006  00000+0 -18357-4 0  9990
2 49092  87.9141   8.2301 0001968  90.5064 269.6293 13.17648338232017
ONEWEB-0305             
1 49093U 21075U   26156.08773749  .00000028  00000+0  39642-4 0  9992
2 49093  87.9148   8.2608 0002201  89.6471 270.4913 13.17648143232010
ONEWEB-0308             
1 49094U 21075V   26156.47983988 -.00000076  00000+0 -24562-3 0  9993
2 49094  87.8949 352.9868 0001775  87.0099 273.1233 13.12441858233025
