OBJECT_NAME,OBJECT_ID,EPOCH,MEAN_MOTION,ECCENTRICITY,INCLINATION,RA_OF_ASC_NODE,ARG_OF_PERICENTER,MEAN_ANOMALY,EPHEMERIS_TYPE,CLASSIFICATION_TYPE,NORAD_CAT_ID,ELEMENT_SET_NO,REV_AT_EPOCH,BSTAR,MEAN_MOTION_DOT,MEAN_MOTION_DDOT
ONEWEB-0275,2021-060AC,2026-06-04T16:33:30.186144,13.16594314,.00019393,87.9105,231.2565,96.2076,263.9276,0,U,48993,999,23791,-.19104699E-3,-.6E-6,0
ONEWEB-0278,2021-060AF,2026-06-05T22:36:53.635680,13.16596264,.000221,87.9103,231.0067,103.7032,256.4345,0,U,48996,999,23821,-.27719E-4,.2E-7,0
ONEWEB-0279,2021-060AG,2026-06-05T22:48:18.639072,13.16593941,.0001807,87.9098,231.0035,94.9918,265.1419,0,U,48997,999,23814,.17092E-4,.19E-6,0
ONEWEB-0280,2021-060AH,2026-06-05T10:23:53.867040,13.16593179,.00019308,87.9099,231.1096,110.3666,249.7672,0,U,48998,999,23801,.26584766E-3,.114E-5,0
ONEWEB-0281,2021-060AJ,2026-06-05T10:31:54.223392,13.16594545,.00021111,87.9102,231.1038,101.5717,258.5651,0,U,48999,999,23808,.1441018E-3,.68E-6,0
ONEWEB-0282,2021-060AK,2026-06-05T11:15:12.008736,13.16596158,.00018865,87.9102,231.1066,101.7920,258.3422,0,U,49000,999,23806,-.19259376E-3,-.61E-6,0
ONEWEB-0283,2021-060AL,2026-06-05T10:59:14.908416,13.16593890,.00018866,87.9102,231.1086,96.2847,263.8499,0,U,49001,999,23807,-.7248833E-4,-.15E-6,0
ONEWEB-0284,2021-060AM,2026-06-05T10:50:08.297952,13.16594305,.00021053,87.9104,231.1025,108.7703,251.3656,0,U,49002,999,23805,.45218782E-4,.3E-6,0
ONEWEB-0285,2021-075A,2026-06-05T11:19:59.864160,13.12441889,.00017073,87.8949,352.9920,89.1992,270.9332,0,U,49075,999,23367,.28632502E-3,.116E-5,0
ONEWEB-0286,2021-075B,2026-06-05T10:54:11.038752,13.12442753,.00020201,87.8939,353.0134,89.5655,270.5705,0,U,49076,999,23302,.12548545E-2,.464E-5,0
ONEWEB-0287,2021-075C,2026-06-05T07:41:40.482816,13.17647669,.00022719,87.9142,8.2268,90.0845,270.0547,0,U,49077,999,23206,.10900023E-4,.17E-6,0
ONEWEB-0288,2021-075D,2026-06-05T12:10:00.022944,13.12443296,.0001918,87.8948,352.9786,94.1941,265.9407,0,U,49078,999,23365,-.94661293E-3,-.328E-5,0
ONEWEB-0289,2021-075E,2026-06-05T12:16:03.898272,13.17649359,.00016489,87.9148,8.2047,96.5699,263.5621,0,U,49079,999,23266,.1059534E-3,.54E-6,0
ONEWEB-0290,2021-075F,2026-06-05T07:58:41.176992,13.17649597,.00015111,87.9146,8.2120,101.8247,258.3054,0,U,49080,999,23205,.81421852E-4,.44E-6,0
ONEWEB-0291,2021-075G,2026-06-05T07:36:48.975264,13.17647705,.00020431,87.9144,8.2234,97.4684,262.6680,0,U,49081,999,23204,.17674364E-4,.2E-6,0
ONEWEB-0293,2021-075H,2026-06-05T11:51:56.746656,13.17649588,.00017571,87.9142,8.1915,92.7450,267.3883,0,U,49082,999,23209,-.37750045E-3,-.134E-5,0
ONEWEB-0294,2021-075J,2026-06-05T12:19:46.129440,13.12444266,.00015937,87.8949,352.9808,98.2176,261.9133,0,U,49083,999,23304,-.39468456E-3,-.129E-5,0
ONEWEB-0295,2021-075K,2026-06-05T11:50:44.223360,13.17647147,.00020159,87.9136,8.1961,92.2960,267.8403,0,U,49084,999,23205,-.52810022E-3,-.192E-5,0
ONEWEB-0296,2021-075L,2026-06-05T11:50:28.684320,13.12443095,.00020465,87.8951,352.9920,90.6331,269.5032,0,U,49085,999,23304,-.7207497E-3,-.247E-5,0
ONEWEB-0297,2021-075M,2026-06-05T10:44:37.519008,13.12443645,.00018865,87.8938,353.0133,90.7557,269.3788,0,U,49086,999,23364,.8191316E-3,.307E-5,0
ONEWEB-0298,2021-075N,2026-06-05T11:57:02.862720,13.17649911,.00019266,87.9143,8.1926,85.4754,274.6598,0,U,49087,999,23208,.18506588E-3,.85E-6,0
ONEWEB-0299,2021-075P,2026-06-05T01:03:10.348128,13.17650468,.00019726,87.9152,8.2625,87.7813,272.3545,0,U,49088,999,23200,.74796179E-4,.42E-6,0
ONEWEB-0300,2021-075Q,2026-06-05T12:23:25.482624,13.12444685,.00019542,87.8951,352.9775,79.9222,280.2126,0,U,49089,999,23367,-.15251627E-3,-.42E-6,0
ONEWEB-0301,2021-075R,2026-06-05T12:00:14.529024,13.12444219,.00018133,87.8948,352.9793,78.0741,282.0591,0,U,49090,999,23303,-.12872106E-2,-.45E-5,0
ONEWEB-0302,2021-075S,2026-06-05T11:40:43.612896,13.12441872,.00017058,87.8950,352.9933,97.9291,262.2031,0,U,49091,999,23301,-.10297463E-2,-.358E-5,0
ONEWEB-0304,2021-075T,2026-06-05T07:44:06.229248,13.17648338,.00019684,87.9141,8.2301,90.5064,269.6293,0,U,49092,999,23201,-.18357045E-4,.6E-7,0
ONEWEB-0305,2021-075U,2026-06-05T02:06:20.519136,13.17648143,.0002201,87.9148,8.2608,89.6471,270.4913,0,U,49093,999,23201,.39642E-4,.28E-6,0
ONEWEB-0308,2021-075V,2026-06-05T11:30:58.165632,13.12441858,.00017756,87.8949,352.9868,87.0099,273.1233,0,U,49094,999,23302,-.24561825E-3,-.76E-6,0
